[
  {
    "OBJECT_NAME": "OSCAR 7 (AO-7)",
    "OBJECT_ID": "1974-089B",
    "EPOCH": "2025-06-14T19:56:40.066656",
    "MEAN_MOTION": 12.53689685,
    "ECCENTRICITY": 0.0012588,
    "INCLINATION": 101.9926,
    "RA_OF_ASC_NODE": 170.1509,
    "ARG_OF_PERICENTER": 111.4824,
    "MEAN_ANOMALY": 302.2567,
    "EPHEMERIS_TYPE": 0,
    "CLASSIFICATION_TYPE": "U",
    "NORAD_CAT_ID": 7530,
    "ELEMENT_SET_NO": 999,
    "REV_AT_EPOCH": 31472,
    "BSTAR": 4.2197e-05,
    "MEAN_MOTION_DOT": -4e-07,
    "MEAN_MOTION_DDOT": 0
  },
  {
    "OBJECT_NAME": "PHASE 3B (AO-10)",
    "OBJECT_ID": "1983-058B",
    "EPOCH": "2025-06-12T06:58:08.437152",
    "MEAN_MOTION": 2.05869585,
    "ECCENTRICITY": 0.6062204,
    "INCLINATION": 26.6901,
    "RA_OF_ASC_NODE": 281.9905,
    "ARG_OF_PERICENTER": 12.9588,
    "MEAN_ANOMALY": 357.3215,
    "EPHEMERIS_TYPE": 0,
    "CLASSIFICATION_TYPE": "U",
    "NORAD_CAT_ID": 14129,
    "ELEMENT_SET_NO": 999,
    "REV_AT_EPOCH": 28787,
    "BSTAR": 0,
    "MEAN_MOTION_DOT": -4e-08,
    "MEAN_MOTION_DDOT": 0
  },
  {
    "OBJECT_NAME": "UOSAT 2 (UO-11)",
    "OBJECT_ID": "1984-021B",
    "EPOCH": "2025-06-14T12:07:46.992000",
    "MEAN_MOTION": 14.8940267,
    "ECCENTRICITY": 0.0006953,
    "INCLINATION": 97.7545,
    "RA_OF_ASC_NODE": 131.7762,
    "ARG_OF_PERICENTER": 331.2809,
    "MEAN_ANOMALY": 28.8024,
    "EPHEMERIS_TYPE": 0,
    "CLASSIFICATION_TYPE": "U",
    "NORAD_CAT_ID": 14781,
    "ELEMENT_SET_NO": 999,
    "REV_AT_EPOCH": 20237,
    "BSTAR": 0.00013693,
    "MEAN_MOTION_DOT": 1.247e-05,
    "MEAN_MOTION_DDOT": 0
  },
  {
    "OBJECT_NAME": "LUSAT (LO-19)",
    "OBJECT_ID": "1990-005G",
    "EPOCH": "2025-06-14T18:13:40.026720",
    "MEAN_MOTION": 14.339567,
    "ECCENTRICITY": 0.0011218,
    "INCLINATION": 98.8975,
    "RA_OF_ASC_NODE": 172.1156,
    "ARG_OF_PERICENTER": 198.2003,
    "MEAN_ANOMALY": 161.8781,
    "EPHEMERIS_TYPE": 0,
    "CLASSIFICATION_TYPE": "U",
    "NORAD_CAT_ID": 20442,
    "ELEMENT_SET_NO": 999,
    "REV_AT_EPOCH": 84979,
    "BSTAR": 5.9053e-05,
    "MEAN_MOTION_DOT": 1.18e-06,
    "MEAN_MOTION_DDOT": 0
  },
  {
    "OBJECT_NAME": "EYESAT A (AO-27)",
    "OBJECT_ID": "1993-061C",
    "EPOCH": "2025-06-14T09:25:25.708224",
    "MEAN_MOTION": 14.30801264,
    "ECCENTRICITY": 0.0009566,
    "INCLINATION": 98.7363,
    "RA_OF_ASC_NODE": 226.9722,
    "ARG_OF_PERICENTER": 98.417,
    "MEAN_ANOMALY": 261.8097,
    "EPHEMERIS_TYPE": 0,
    "CLASSIFICATION_TYPE": "U",
    "NORAD_CAT_ID": 22825,
    "ELEMENT_SET_NO": 999,
    "REV_AT_EPOCH": 65440,
    "BSTAR": 6.5332e-05,
    "MEAN_MOTION_DOT": 1.26e-06,
    "MEAN_MOTION_DDOT": 0
  },
  {
    "OBJECT_NAME": "ITAMSAT (IO-26)",
    "OBJECT_ID": "1993-061D",
    "EPOCH": "2025-06-14T16:33:12.590784",
    "MEAN_MOTION": 14.31214742,
    "ECCENTRICITY": 0.0010063,
    "INCLINATION": 98.731,
    "RA_OF_ASC_NODE": 227.1544,
    "ARG_OF_PERICENTER": 83.7564,
    "MEAN_ANOMALY": 276.4765,
    "EPHEMERIS_TYPE": 0,
    "CLASSIFICATION_TYPE": "U",
    "NORAD_CAT_ID": 22826,
    "ELEMENT_SET_NO": 999,
    "REV_AT_EPOCH": 65499,
    "BSTAR": 7.0716e-05,
    "MEAN_MOTION_DOT": 1.42e-06,
    "MEAN_MOTION_DDOT": 0
  },
  {
    "OBJECT_NAME": "RADIO ROSTO (RS-15)",
    "OBJECT_ID": "1994-085A",
    "EPOCH": "2025-06-14T14:06:44.565984",
    "MEAN_MOTION": 11.27581452,
    "ECCENTRICITY": 0.0145597,
    "INCLINATION": 64.8128,
    "RA_OF_ASC_NODE": 177.7073,
    "ARG_OF_PERICENTER": 73.3628,
    "MEAN_ANOMALY": 288.3225,
    "EPHEMERIS_TYPE": 0,
    "CLASSIFICATION_TYPE": "U",
    "NORAD_CAT_ID": 23439,
    "ELEMENT_SET_NO": 999,
    "REV_AT_EPOCH": 25445,
    "BSTAR": -0.00047653,
    "MEAN_MOTION_DOT": -5.9e-07,
    "MEAN_MOTION_DDOT": 0
  },
  {
    "OBJECT_NAME": "JAS-2 (FO-29)",
    "OBJECT_ID": "1996-046B",
    "EPOCH": "2025-06-14T16:56:10.329504",
    "MEAN_MOTION": 13.53249324,
    "ECCENTRICITY": 0.0349396,
    "INCLINATION": 98.5753,
    "RA_OF_ASC_NODE": 58.9227,
    "ARG_OF_PERICENTER": 329.5026,
    "MEAN_ANOMALY": 28.6199,
    "EPHEMERIS_TYPE": 0,
    "CLASSIFICATION_TYPE": "U",
    "NORAD_CAT_ID": 24278,
    "ELEMENT_SET_NO": 999,
    "REV_AT_EPOCH": 42371,
    "BSTAR": 1.4101e-05,
    "MEAN_MOTION_DOT": -2.4e-07,
    "MEAN_MOTION_DDOT": 0
  },
  {
    "OBJECT_NAME": "TECHSAT 1B (GO-32)",
    "OBJECT_ID": "1998-043D",
    "EPOCH": "2025-06-14T12:56:11.052384",
    "MEAN_MOTION": 14.24316361,
    "ECCENTRICITY": 0.0001438,
    "INCLINATION": 98.9703,
    "RA_OF_ASC_NODE": 144.7614,
    "ARG_OF_PERICENTER": 148.2462,
    "MEAN_ANOMALY": 211.8803,
    "EPHEMERIS_TYPE": 0,
    "CLASSIFICATION_TYPE": "U",
    "NORAD_CAT_ID": 25397,
    "ELEMENT_SET_NO": 999,
    "REV_AT_EPOCH": 39899,
    "BSTAR": 4.4535e-05,
    "MEAN_MOTION_DOT": 5.6e-07,
    "MEAN_MOTION_DDOT": 0
  },
  {
    "OBJECT_NAME": "ISS (ZARYA)",
    "OBJECT_ID": "1998-067A",
    "EPOCH": "2025-06-14T19:31:35.967072",
    "MEAN_MOTION": 15.50200772,
    "ECCENTRICITY": 0.0001501,
    "INCLINATION": 51.6371,
    "RA_OF_ASC_NODE": 318.8403,
    "ARG_OF_PERICENTER": 246.5954,
    "MEAN_ANOMALY": 113.4877,
    "EPHEMERIS_TYPE": 0,
    "CLASSIFICATION_TYPE": "U",
    "NORAD_CAT_ID": 25544,
    "ELEMENT_SET_NO": 999,
    "REV_AT_EPOCH": 51479,
    "BSTAR": 0.00018747,
    "MEAN_MOTION_DOT": 0.00010333,
    "MEAN_MOTION_DDOT": 0
  },
  {
    "OBJECT_NAME": "PCSAT (NO-44)",
    "OBJECT_ID": "2001-043C",
    "EPOCH": "2025-06-14T06:09:04.597344",
    "MEAN_MOTION": 14.31736973,
    "ECCENTRICITY": 0.0006064,
    "INCLINATION": 67.05,
    "RA_OF_ASC_NODE": 115.749,
    "ARG_OF_PERICENTER": 276.1192,
    "MEAN_ANOMALY": 83.9218,
    "EPHEMERIS_TYPE": 0,
    "CLASSIFICATION_TYPE": "U",
    "NORAD_CAT_ID": 26931,
    "ELEMENT_SET_NO": 999,
    "REV_AT_EPOCH": 23777,
    "BSTAR": 8.94e-05,
    "MEAN_MOTION_DOT": 1.56e-06,
    "MEAN_MOTION_DDOT": 0
  },
  {
    "OBJECT_NAME": "SAUDISAT 1C (SO-50)",
    "OBJECT_ID": "2002-058C",
    "EPOCH": "2025-06-14T09:53:56.484384",
    "MEAN_MOTION": 14.81635863,
    "ECCENTRICITY": 0.0056949,
    "INCLINATION": 64.5512,
    "RA_OF_ASC_NODE": 185.6184,
    "ARG_OF_PERICENTER": 332.9424,
    "MEAN_ANOMALY": 26.8715,
    "EPHEMERIS_TYPE": 0,
    "CLASSIFICATION_TYPE": "U",
    "NORAD_CAT_ID": 27607,
    "ELEMENT_SET_NO": 999,
    "REV_AT_EPOCH": 20994,
    "BSTAR": 0.00014844,
    "MEAN_MOTION_DOT": 1.052e-05,
    "MEAN_MOTION_DDOT": 0
  },
  {
    "OBJECT_NAME": "CUTE-1 (CO-55)",
    "OBJECT_ID": "2003-031E",
    "EPOCH": "2025-06-14T12:40:23.143296",
    "MEAN_MOTION": 14.2400039,
    "ECCENTRICITY": 0.0009887,
    "INCLINATION": 98.6752,
    "RA_OF_ASC_NODE": 173.7375,
    "ARG_OF_PERICENTER": 165.9365,
    "MEAN_ANOMALY": 194.2091,
    "EPHEMERIS_TYPE": 0,
    "CLASSIFICATION_TYPE": "U",
    "NORAD_CAT_ID": 27844,
    "ELEMENT_SET_NO": 999,
    "REV_AT_EPOCH": 13934,
    "BSTAR": 0.00014848,
    "MEAN_MOTION_DOT": 2.97e-06,
    "MEAN_MOTION_DDOT": 0
  },
  {
    "OBJECT_NAME": "CUBESAT XI-IV (CO-57)",
    "OBJECT_ID": "2003-031J",
    "EPOCH": "2025-06-14T18:14:19.757760",
    "MEAN_MOTION": 14.23334581,
    "ECCENTRICITY": 0.0009416,
    "INCLINATION": 98.678,
    "RA_OF_ASC_NODE": 173.9681,
    "ARG_OF_PERICENTER": 182.3373,
    "MEAN_ANOMALY": 177.7762,
    "EPHEMERIS_TYPE": 0,
    "CLASSIFICATION_TYPE": "U",
    "NORAD_CAT_ID": 27848,
    "ELEMENT_SET_NO": 999,
    "REV_AT_EPOCH": 13915,
    "BSTAR": 0.00012592,
    "MEAN_MOTION_DOT": 2.42e-06,
    "MEAN_MOTION_DDOT": 0
  }
]