OSCAR 7 (AO-7)          
1 07530U 74089B   25165.83101929 -.00000040  00000+0  42197-4 0  9996
2 07530 101.9926 170.1509 0012588 111.4824 302.2567 12.53689685314728
PHASE 3B (AO-10)        
1 14129U 83058B   25163.29037543 -.00000004  00000+0  00000+0 0  9994
2 14129  26.6901 281.9905 6062204  12.9588 357.3215  2.05869585287876
UOSAT 2 (UO-11)         
1 14781U 84021B   25165.50540500  .00001247  00000+0  13693-3 0  9992
2 14781  97.7545 131.7762 0006953 331.2809  28.8024 14.89402670202375
LUSAT (LO-19)           
1 20442U 90005G   25165.75949105  .00000118  00000+0  59053-4 0  9990
2 20442  98.8975 172.1156 0011218 198.2003 161.8781 14.33956700849796
EYESAT A (AO-27)        
1 22825U 93061C   25165.39265866  .00000126  00000+0  65332-4 0  9993
2 22825  98.7363 226.9722 0009566  98.4170 261.8097 14.30801264654403
ITAMSAT (IO-26)         
1 22826U 93061D   25165.68972906  .00000142  00000+0  70716-4 0  9996
2 22826  98.7310 227.1544 0010063  83.7564 276.4765 14.31214742654997
RADIO ROSTO (RS-15)     
1 23439U 94085A   25165.58801581 -.00000059  00000+0 -47653-3 0  9995
2 23439  64.8128 177.7073 0145597  73.3628 288.3225 11.27581452254450
JAS-2 (FO-29)           
1 24278U 96046B   25165.70567511 -.00000024  00000+0  14101-4 0  9996
2 24278  98.5753  58.9227 0349396 329.5026  28.6199 13.53249324423714
TECHSAT 1B (GO-32)      
1 25397U 98043D   25165.53901681  .00000056  00000+0  44535-4 0  9997
2 25397  98.9703 144.7614 0001438 148.2462 211.8803 14.24316361398996
ISS (ZARYA)             
1 25544U 98067A   25165.81361073  .00010333  00000+0  18747-3 0  9997
2 25544  51.6371 318.8403 0001501 246.5954 113.4877 15.50200772514790
PCSAT (NO-44)           
1 26931U 01043C   25165.25630321  .00000156  00000+0  89400-4 0  9996
2 26931  67.0500 115.7490 0006064 276.1192  83.9218 14.31736973237773
SAUDISAT 1C (SO-50)     
1 27607U 02058C   25165.41245931  .00001052  00000+0  14844-3 0  9996
2 27607  64.5512 185.6184 0056949 332.9424  26.8715 14.81635863209948
CUTE-1 (CO-55)          
1 27844U 03031E   25165.52804564  .00000297  00000+0  14848-3 0  9990
2 27844  98.6752 173.7375 0009887 165.9365 194.2091 14.24000390139343
CUBESAT XI-IV (CO-57)   
1 27848U 03031J   25165.75995090  .00000242  00000+0  12592-3 0  9998
2 27848  98.6780 173.9681 0009416 182.3373 177.7762 14.23334581139151
